NORAD_CAT_ID,OBJECT_NAME,OBJECT_TYPE,EPOCH,MEAN_MOTION,ECCENTRICITY,INCLINATION,RA_OF_ASC_NODE,ARG_OF_PERICENTER,MEAN_ANOMALY,BSTAR,MEAN_MOTION_DOT,MEAN_MOTION_DDOT,TLE_LINE0,TLE_LINE1,TLE_LINE2,SEMIMAJOR_AXIS,PERIOD,APOGEE,PERIGEE,DECAYED
52649.0,STARLINK-3868,PAYLOAD,2023-06-10 19:40:26,15.08838207,0.0001058,53.2177,81.0329,88.7336,271.3777,-2.9677e-05,-7.6e-06,0.0,0 STARLINK-3868,1 52649U 22052BD  23161.81974985 -.00000760  00000-0 -29677-4 0  9991,2 52649  53.2177  81.0329 0001058  88.7336 271.3777 15.08838207 59746,6917.886,95.438,540.483,539.019,0.0
52649.0,STARLINK-3868,PAYLOAD,2023-06-11 03:37:21,15.08846683,0.0001062,53.2176,79.5463,88.6415,271.4699,4.2016e-05,3.81e-06,0.0,0 STARLINK-3868,1 52649U 22052BD  23162.15094234  .00000381  00000-0  42016-4 0  9998,2 52649  53.2176  79.5463 0001062  88.6415 271.4699 15.08846683 60167,6917.86,95.437,540.46,538.99,0.0
52649.0,STARLINK-3868,PAYLOAD,2023-06-11 13:09:40,15.08835031,9.84e-05,53.2175,77.7636,97.5193,262.5911,7.851e-05,9.62e-06,0.0,0 STARLINK-3868,1 52649U 22052BD  23162.54838793  .00000962  00000-0  78510-4 0  9990,2 52649  53.2175  77.7636 0000984  97.5193 262.5911 15.08835031 59859,6917.896,95.438,540.441,539.08,0.0
52649.0,STARLINK-3868,PAYLOAD,2023-06-11 21:06:36,15.08838412,9.63e-05,53.2172,76.2762,93.8129,266.2974,0.00010579,1.396e-05,0.0,0 STARLINK-3868,1 52649U 22052BD  23162.87958576  .00001396  00000-0  10579-3 0  9990,2 52649  53.2172  76.2762 0000963  93.8129 266.2974 15.08838412 59907,6917.885,95.438,540.416,539.084,0.0
52649.0,STARLINK-3868,PAYLOAD,2023-06-12 00:17:22,15.08842354,7.93e-05,53.2173,75.6813,97.3188,262.7894,0.00014206,1.974e-05,0.0,0 STARLINK-3868,1 52649U 22052BD  23163.01206163  .00001974  00000-0  14206-3 0  9998,2 52649  53.2173  75.6813 0000793  97.3188 262.7894 15.08842354 60299,6917.873,95.437,540.287,539.19,0.0
52649.0,STARLINK-3868,PAYLOAD,2023-06-12 11:25:04,15.08840388,8.92e-05,53.2174,73.5981,89.6081,270.5013,4.7098e-05,4.62e-06,0.0,0 STARLINK-3868,1 52649U 22052BD  23163.47574543  .00000462  00000-0  47098-4 0  9995,2 52649  53.2174  73.5981 0000892  89.6081 270.5013 15.08840388 59999,6917.879,95.438,540.361,539.127,0.0
52649.0,STARLINK-3868,PAYLOAD,2023-06-13 00:08:10,15.08825945,8.72e-05,53.2173,71.2195,94.217,265.8922,0.00016585,2.352e-05,0.0,0 STARLINK-3868,1 52649U 22052BD  23164.00567344  .00002352  00000-0  16585-3 0  9992,2 52649  53.2173  71.2195 0000872  94.2170 265.8922 15.08825945 60449,6917.923,95.438,540.392,539.185,0.0
52649.0,STARLINK-3868,PAYLOAD,2023-06-13 20:48:10,15.08839432,0.0001013,53.2171,67.3541,92.4449,267.6659,4.2016e-05,3.81e-06,0.0,0 STARLINK-3868,1 52649U 22052BD  23164.86678733  .00000381  00000-0  42016-4 0  9990,2 52649  53.2171  67.3541 0001013  92.4449 267.6659 15.08839432 60202,6917.882,95.438,540.448,539.046,0.0
52649.0,STARLINK-3868,PAYLOAD,2023-06-13 23:58:56,15.08839933,0.000104,53.2169,66.7596,91.404,268.7072,3.9907e-05,3.47e-06,0.0,0 STARLINK-3868,1 52649U 22052BD  23164.99926714  .00000347  00000-0  39907-4 0  9996,2 52649  53.2169  66.7596 0001040  91.4040 268.7072 15.08839933 60597,6917.881,95.438,540.465,539.026,0.0
52649.0,STARLINK-3868,PAYLOAD,2023-06-14 17:28:11,15.08830089,0.0001103,53.2169,63.4886,90.0554,270.0564,0.00012868,1.76e-05,0.0,0 STARLINK-3868,1 52649U 22052BD  23165.72791069  .00001760  00000-0  12868-3 0  9997,2 52649  53.2169  63.4886 0001103  90.0554 270.0564 15.08830089 60706,6917.911,95.438,540.539,539.013,0.0
52649.0,STARLINK-3868,PAYLOAD,2023-06-14 23:49:43,15.08840154,0.0001088,53.2177,62.2972,94.9869,265.1248,5.0723e-05,5.2e-06,0.0,0 STARLINK-3868,1 52649U 22052BD  23165.99286633  .00000520  00000-0  50723-4 0  9998,2 52649  53.2177  62.2972 0001088  94.9869 265.1248 15.08840154 60744,6917.88,95.438,540.498,538.992,0.0
52649.0,STARLINK-3868,PAYLOAD,2023-06-15 17:18:58,15.08836721,0.000115,53.2176,59.0262,94.802,265.3104,1.8998e-06,-2.58e-06,0.0,0 STARLINK-3868,1 52649U 22052BD  23166.72151191 -.00000258  00000-0  18998-5 0  9998,2 52649  53.2176  59.0262 0001150  94.8020 265.3104 15.08836721 60857,6917.89,95.438,540.551,538.96,0.0
52649.0,STARLINK-3868,PAYLOAD,2023-06-15 23:40:30,15.08843368,0.000105,53.2171,57.8393,89.1859,270.9253,2.9714e-05,1.85e-06,0.0,0 STARLINK-3868,1 52649U 22052BD  23166.98646729  .00000185  00000-0  29714-4 0  9997,2 52649  53.2171  57.8393 0001050  89.1859 270.9253 15.08843368 60895,6917.87,95.437,540.461,539.009,0.0
52649.0,STARLINK-3868,PAYLOAD,2023-06-16 09:12:49,15.08844901,0.0001073,53.2175,56.055,89.3295,270.782,2.9121e-05,1.76e-06,0.0,0 STARLINK-3868,1 52649U 22052BD  23167.38390555  .00000176  00000-0  29121-4 0  9997,2 52649  53.2175  56.0550 0001073  89.3295 270.7820 15.08844901 60584,6917.865,95.437,540.473,538.988,0.0
52649.0,STARLINK-3868,PAYLOAD,2023-06-16 17:09:44,15.08843945,0.0001072,53.2173,54.5679,94.0332,266.0783,8.8746e-05,1.125e-05,0.0,0 STARLINK-3868,1 52649U 22052BD  23167.71510391  .00001125  00000-0  88746-4 0  9999,2 52649  53.2173  54.5679 0001072  94.0332 266.0783 15.08843945 60630,6917.868,95.437,540.475,538.992,0.0
52649.0,STARLINK-3868,PAYLOAD,2023-06-17 01:06:39,15.08853398,0.0001145,53.218,53.0816,95.5897,264.5225,0.00016794,2.387e-05,0.0,0 STARLINK-3868,1 52649U 22052BD  23168.04629480  .00002387  00000-0  16794-3 0  9990,2 52649  53.2180  53.0816 0001145  95.5897 264.5225 15.08853398 61052,6917.839,95.437,540.497,538.912,0.0
52649.0,STARLINK-3868,PAYLOAD,2023-06-17 09:03:37,15.08833776,0.0002019,53.2171,51.5928,76.5991,283.5226,3.6565e-05,2.94e-06,0.0,0 STARLINK-3868,1 52649U 22052BD  23168.37751442  .00000294  00000-0  36565-4 0  9994,2 52649  53.2171  51.5928 0002019  76.5991 283.5226 15.08833776 61100,6917.899,95.438,541.161,538.368,0.0
52649.0,STARLINK-3868,PAYLOAD,2023-06-17 17:00:34,15.08814809,0.0001116,53.218,50.1072,86.9094,273.2026,-0.00016943,-2.981e-05,0.0,0 STARLINK-3868,1 52649U 22052BD  23168.70873185 -.00002981  00000-0 -16943-3 0  9994,2 52649  53.2180  50.1072 0001116  86.9094 273.2026 15.08814809 61156,6917.957,95.439,540.594,539.05,0.0
52649.0,STARLINK-3868,PAYLOAD,2023-06-18 00:57:29,15.08818084,0.0001212,53.2177,48.6212,89.9902,270.1229,-0.00027503,-4.66e-05,0.0,0 STARLINK-3868,1 52649U 22052BD  23169.03992244 -.00004660  00000-0 -27503-3 0  9999,2 52649  53.2177  48.6212 0001212  89.9902 270.1229 15.08818084 61204,6917.947,95.439,540.651,538.974,0.0
52649.0,STARLINK-3868,PAYLOAD,2023-06-18 08:54:24,15.088268,0.0001115,53.2172,47.1338,85.1674,274.9445,-0.00011221,-2.072e-05,0.0,0 STARLINK-3868,1 52649U 22052BD  23169.37112139 -.00002072  00000-0 -11221-3 0  9998,2 52649  53.2172  47.1338 0001115  85.1674 274.9445 15.08826800 61250,6917.921,95.438,540.557,539.014,0.0
52649.0,STARLINK-3868,PAYLOAD,2023-06-18 18:26:43,15.08835046,0.0001098,53.2172,45.3495,87.8087,272.3031,7.6326e-05,9.27e-06,0.0,0 STARLINK-3868,1 52649U 22052BD  23169.76856079  .00000927  00000-0  76326-4 0  9992,2 52649  53.2172  45.3495 0001098  87.8087 272.3031 15.08835046 60941,6917.896,95.438,540.52,539.001,0.0
52649.0,STARLINK-3868,PAYLOAD,2023-06-19 00:48:16,15.08839042,0.0001044,53.2167,44.16,85.8773,274.2338,0.00029147,4.354e-05,0.0,0 STARLINK-3868,1 52649U 22052BD  23170.03352161  .00004354  00000-0  29147-3 0  9993,2 52649  53.2167  44.1600 0001044  85.8773 274.2338 15.08839042 61358,6917.883,95.438,540.471,539.026,0.0
52649.0,STARLINK-3868,PAYLOAD,2023-06-19 08:45:12,15.08844906,9.91e-05,53.2164,42.6734,86.769,273.3415,0.00066247,0.00010272,0.0,0 STARLINK-3868,1 52649U 22052BD  23170.36472405  .00010272  00000-0  66247-3 0  9991,2 52649  53.2164  42.6734 0000991  86.7690 273.3415 15.08844906 61030,6917.865,95.437,540.416,539.045,0.0
52649.0,STARLINK-3868,PAYLOAD,2023-06-19 21:28:16,15.08862625,0.0001011,53.2159,40.2948,83.3186,276.7921,0.00077881,0.00012136,0.0,0 STARLINK-3868,1 52649U 22052BD  23170.89463782  .00012136  00000-0  77881-3 0  9994,2 52649  53.2159  40.2948 0001011  83.3186 276.7921 15.08862625 61118,6917.811,95.436,540.376,538.977,0.0
52649.0,STARLINK-3868,PAYLOAD,2023-06-20 00:39:02,15.08869537,0.0001008,53.2158,39.7002,82.8071,277.3035,0.00089074,0.00013928,0.0,0 STARLINK-3868,1 52649U 22052BD  23171.02711489  .00013928  00000-0  89074-3 0  9997,2 52649  53.2158  39.7002 0001008  82.8071 277.3035 15.08869537 61509,6917.79,95.436,540.352,538.958,0.0
52649.0,STARLINK-3868,PAYLOAD,2023-06-20 08:35:58,15.08858961,9.36e-05,53.2158,38.2133,93.4619,266.648,0.00036265,5.491e-05,0.0,0 STARLINK-3868,1 52649U 22052BD  23171.35831328  .00005491  00000-0  36265-3 0  9998,2 52649  53.2158  38.2133 0000936  93.4619 266.6480 15.08858961 61552,6917.822,95.436,540.335,539.04,0.0
52649.0,STARLINK-3868,PAYLOAD,2023-06-20 21:19:03,15.08850343,0.0001208,53.2161,35.8336,99.8166,260.2962,0.00024598,3.63e-05,0.0,0 STARLINK-3868,1 52649U 22052BD  23171.88823355  .00003630  00000-0  24598-3 0  9996,2 52649  53.2161  35.8336 0001208  99.8166 260.2962 15.08850343 61263,6917.849,95.437,540.549,538.878,0.0
52649.0,STARLINK-3868,PAYLOAD,2023-06-21 00:29:49,15.08850324,0.0001202,53.2159,35.239,99.4558,260.657,0.00033484,5.047e-05,0.0,0 STARLINK-3868,1 52649U 22052BD  23172.02071327  .00005047  00000-0  33484-3 0  9995,2 52649  53.2159  35.2390 0001202  99.4558 260.6570 15.08850324 61650,6917.849,95.437,540.545,538.882,0.0
52649.0,STARLINK-3868,PAYLOAD,2023-06-21 17:59:04,15.0883718,0.0001554,53.217,31.966,106.1182,253.9981,0.00018372,2.637e-05,0.0,0 STARLINK-3868,1 52649U 22052BD  23172.74935745  .00002637  00000-0  18372-3 0  9998,2 52649  53.2170  31.9660 0001554 106.1182 253.9981 15.08837180 61763,6917.889,95.438,540.829,538.679,0.0
52649.0,STARLINK-3868,PAYLOAD,2023-06-21 21:09:50,15.08839422,0.0001219,53.2162,31.3722,100.0208,260.0922,3.636e-05,2.91e-06,0.0,0 STARLINK-3868,1 52649U 22052BD  23172.88183722  .00000291  00000-0  36360-4 0  9995,2 52649  53.2162  31.3722 0001219 100.0208 260.0922 15.08839422 61414,6917.882,95.438,540.59,538.904,0.0
